LEMUR-2-NICHOL
1 46503U 20068T   24002.86633918  .00018757  00000-0  76044-3 0  9998
2 46503  97.7804 322.5762 0008670 150.6784 209.4941 15.24659830179452
